{"fetched_at":"2026-04-05T12:57:33Z","count":17389,"tles":[{"name":"COSMOS 2510","line1":"1 41032U 15066A   26086.33825851  .00000739  00000+0  00000+0 0  9992","line2":"2 41032  63.4773 357.5010 7210834 274.5967  13.8817  2.00991615 75821","category":"Other"}]}